     2.11           N: GPS NAV DATA                         RINEX VERSION / TYPE
teqc  2019Feb25                         20221121 12:28:24UTCPGM / RUN BY / DATE
OSX ker:10.11.6|Core i5|gcc 4.3 -m64|OSX ker:10.10+|=+      COMMENT
    1.1176D-08  0.0000D+00 -5.9605D-08  0.0000D+00          ION ALPHA
    9.0112D+04  0.0000D+00 -1.9661D+05  0.0000D+00          ION BETA
    9.313225746155D-09 2.398081733190D-14   589824     1553 DELTA-UTC: A0,A1,T,W
                                                            END OF HEADER
 2 09 10 16  0  0  0.0 1.813946291804D-04 3.637978807092D-12 0.000000000000D+00
    8.200000000000D+01 9.587500000000D+01 5.043067206849D-09-1.057891873443D+00
    4.954636096954D-06 9.112680098042D-03 9.581446647644D-06 5.153725715637D+03
    4.320000000000D+05-2.607703208923D-08-2.918965756880D+00-1.210719347000D-07
    9.411793489034D-01 1.859375000000D+02 2.903456411425D+00-8.364276977138D-09
    5.168072413817D-10 1.000000000000D+00 1.553000000000D+03 0.000000000000D+00
    2.000000000000D+00 0.000000000000D+00-1.722946763039D-08 8.200000000000D+01
    4.290120000000D+05 4.000000000000D+00
 4 09 10 16  0  0  0.0-3.128023818135D-04-1.773514668457D-11 0.000000000000D+00
    6.500000000000D+01 9.043750000000D+01 5.037352683102D-09 1.779902435761D+00
    4.835426807404D-06 8.938133018091D-03 1.016072928905D-05 5.153564205170D+03
    4.320000000000D+05-2.402812242508D-07-2.900784991350D+00 1.508742570877D-07
    9.403566257194D-01 1.751875000000D+02 5.380135974430D-01-8.395706857747D-09
    3.950164540209D-10 1.000000000000D+00 1.553000000000D+03 0.000000000000D+00
    2.000000000000D+00 0.000000000000D+00-6.053596735001D-09 6.500000000000D+01
    4.290120000000D+05 4.000000000000D+00
12 09 10 16  0  0  0.0-2.039312385023D-04 5.456968210638D-12 0.000000000000D+00
    6.700000000000D+01-1.556250000000D+01 4.749126391605D-09-2.697933882678D+00
   -7.264316082001D-07 3.064426360652D-03 3.669410943985D-06 5.153543516159D+03
    4.320000000000D+05-3.539025783539D-08 1.290837268256D+00 3.166496753693D-08
    9.679650263715D-01 3.107187500000D+02-5.768093144689D-01-8.363205503936D-09
   -1.535778257043D-11 1.000000000000D+00 1.553000000000D+03 0.000000000000D+00
    2.000000000000D+00 0.000000000000D+00-1.164153218269D-08 6.700000000000D+01
    4.290120000000D+05 4.000000000000D+00
13 09 10 16  0  0  0.0 3.056484274566D-04 2.273736754432D-13 0.000000000000D+00
    8.600000000000D+01-8.075000000000D+01 3.660866775510D-09-4.376751111995D-01
   -4.237517714500D-06 3.956635715440D-03 1.111626625061D-05 5.153641660690D+03
    4.320000000000D+05-7.450580596924D-08-7.476834828525D-01 3.539025783539D-08
    9.942936224004D-01 1.833750000000D+02 1.661601164632D+00-7.688177386305D-09
   -4.114457097939D-10 1.000000000000D+00 1.553000000000D+03 0.000000000000D+00
    2.000000000000D+00 0.000000000000D+00-1.117587089539D-08 8.600000000000D+01
    4.290120000000D+05 4.000000000000D+00
23 09 10 16  0  0  0.0 3.874339163303D-04-4.547473508865D-13 0.000000000000D+00
    1.170000000000D+02-8.840625000000D+01 4.172316650879D-09-1.157111075212D+00
   -4.682689905167D-06 6.389021407813D-03 1.071766018867D-05 5.153766601562D+03
    4.320000000000D+05-6.146728992462D-08-8.030588674024D-01-1.452863216400D-07
    9.695850618525D-01 1.779375000000D+02 2.990040859341D+00-7.913186758848D-09
   -4.085884479203D-10 1.000000000000D+00 1.553000000000D+03 0.000000000000D+00
    2.000000000000D+00 0.000000000000D+00-2.002343535423D-08 1.170000000000D+02
    4.290120000000D+05 4.000000000000D+00
30 09 10 16  0  0  0.0 1.851967535913D-04 3.069544618484D-12 0.000000000000D+00
    5.500000000000D+01-7.968750000000D+00 5.209145553250D-09 1.063546727687D+00
   -6.128102540970D-07 1.194808678702D-02 3.647059202194D-06 5.153652383804D+03
    4.320000000000D+05-2.030283212662D-07 1.240784317613D+00-1.098960638046D-07
    9.531346650846D-01 3.060312500000D+02 1.462237775547D+00-8.796794993250D-09
   -2.428672592533D-11 1.000000000000D+00 1.553000000000D+03 0.000000000000D+00
    2.000000000000D+00 0.000000000000D+00-7.916241884232D-09 5.500000000000D+01
    4.290120000000D+05 4.000000000000D+00
31 09 10 16  0  0  0.0-6.285915151238D-05 5.684341886081D-13 0.000000000000D+00
    4.800000000000D+01 6.334375000000D+01 4.054097440860D-09-2.922113683021D+00
    3.334134817123D-06 7.214372395538D-03 1.088716089725D-05 5.153537801743D+03
    4.320000000000D+05 1.080334186554D-07 2.366795473389D-01 1.676380634308D-08
    9.747474539840D-01 1.784062500000D+02-1.148354148531D+00-7.721393055585D-09
    5.007351433429D-10 1.000000000000D+00 1.553000000000D+03 0.000000000000D+00
    2.000000000000D+00 0.000000000000D+00-1.303851604462D-08 4.800000000000D+01
    4.290180000000D+05 4.000000000000D+00
29 09 10 16  0  0  0.0 6.630131974816D-05 3.183231456205D-12 0.000000000000D+00
    5.800000000000D+01-4.643750000000D+01 4.347323940635D-09 2.635457991164D+00
   -2.652406692505D-06 2.987564075738D-03 1.228228211403D-05 5.153598731995D+03
    4.320000000000D+05 6.332993507385D-08 2.359317966583D+00 1.862645149231D-08
    9.602173083565D-01 1.432187500000D+02-1.268898054057D+00-7.892471610265D-09
   -3.768014095769D-10 1.000000000000D+00 1.553000000000D+03 0.000000000000D+00
    2.000000000000D+00 0.000000000000D+00-8.847564458847D-09 5.800000000000D+01
    4.290480000000D+05 4.000000000000D+00
10 09 10 16  0  0  0.0-2.599181607366D-05-1.023181539495D-12 0.000000000000D+00
    1.010000000000D+02-1.146875000000D+01 5.247361430809D-09 4.649477692266D-02
   -5.122274160385D-07 8.623053319752D-03 2.196058630943D-06 5.153380374908D+03
    4.320000000000D+05-7.450580596924D-09-1.833834524352D+00 4.470348358154D-08
    9.560514252994D-01 3.313437500000D+02 6.165128379943D-01-8.815010037694D-09
   -1.992940156814D-10 1.000000000000D+00 1.553000000000D+03 0.000000000000D+00
    2.000000000000D+00 0.000000000000D+00-2.793967723846D-09 1.010000000000D+02
    4.292280000000D+05 4.000000000000D+00
25 09 10 16  0  0  0.0 6.325780414045D-04 1.352873368887D-11 0.000000000000D+00
    1.800000000000D+01 3.850000000000D+01 4.053025967657D-09 1.804530503630D+00
    2.017244696617D-06 1.125787163619D-02 1.144967973232D-05 5.153641250610D+03
    4.320000000000D+05 2.551823854446D-07 1.439547494817D-01-6.519258022308D-08
    9.715704874563D-01 1.609375000000D+02-1.214450851530D+00-7.671390972798D-09
    3.846588797292D-10 1.000000000000D+00 1.553000000000D+03 0.000000000000D+00
    2.800000000000D+00 0.000000000000D+00-7.450580596924D-09 1.800000000000D+01
    4.310880000000D+05 4.000000000000D+00
